OBJECT B                
1 51825U 22019B   26073.97175689  .00071602  00000+0  80631-3 0  9991
2 51825  97.3528 161.5227 0007006 117.0402 243.1572 15.62302886224990
